{"type": "FeatureCollection", "features": [{"type": "Feature", "properties": {}, "geometry": {"type": "Point", "coordinates": [77.60134, 12.9156]}}, {"type": "Feature", "properties": {}, "geometry": {"type": "Point", "coordinates": [77.60733, 12.91626]}}, {"type": "Feature", "properties": {}, "geometry": {"type": "Point", "coordinates": [77.64452, 12.97189]}}, {"type": "Feature", "properties": {}, "geometry": {"type": "Point", "coordinates": [77.62135, 12.97263]}}, {"type": "Feature", "properties": {}, "geometry": {"type": "Point", "coordinates": [77.63774, 12.96147]}}, {"type": "Feature", "properties": {}, "geometry": {"type": "Point", "coordinates": [77.6496, 12.98305]}}, {"type": "Feature", "properties": {}, "geometry": {"type": "Point", "coordinates": [77.6497, 12.98288]}}, {"type": "Feature", "properties": {}, "geometry": {"type": "Point", "coordinates": [77.64998, 12.98242]}}, {"type": "Feature", "properties": {}, "geometry": {"type": "Point", "coordinates": [77.60734, 12.96507]}}, {"type": "Feature", "properties": {}, "geometry": {"type": "Point", "coordinates": [77.60811, 12.9648]}}, {"type": "Feature", "properties": {}, "geometry": {"type": "Point", "coordinates": [77.61238, 12.95832]}}, {"type": "Feature", "properties": {}, "geometry": {"type": "Point", "coordinates": [77.59169, 12.9236]}}, {"type": "Feature", "properties": {}, "geometry": {"type": "Point", "coordinates": [77.58488, 12.9301]}}, {"type": "Feature", "properties": {}, "geometry": {"type": "Point", "coordinates": [77.58638, 12.93616]}}, {"type": "Feature", "properties": {}, "geometry": {"type": "Point", "coordinates": [77.64001, 12.97595]}}, {"type": "Feature", "properties": {}, "geometry": {"type": "Point", "coordinates": [77.57273, 12.9164]}}, {"type": "Feature", "properties": {}, "geometry": {"type": "Point", "coordinates": [77.59542, 12.91396]}}, {"type": "Feature", "properties": {}, "geometry": {"type": "Point", "coordinates": [77.56091, 12.94114]}}, {"type": "Feature", "properties": {}, "geometry": {"type": "Point", "coordinates": [77.62147, 12.92787]}}, {"type": "Feature", "properties": {}, "geometry": {"type": "Point", "coordinates": [77.5483, 12.97466]}}, {"type": "Feature", "properties": {}, "geometry": {"type": "Point", "coordinates": [77.48879, 12.93199]}}, {"type": "Feature", "properties": {}, "geometry": {"type": "Point", "coordinates": [77.5258, 12.96384]}}, {"type": "Feature", "properties": {}, "geometry": {"type": "Point", "coordinates": [77.54574, 12.99899]}}, {"type": "Feature", "properties": {}, "geometry": {"type": "Point", "coordinates": [77.58997, 12.98679]}}, {"type": "Feature", "properties": {}, "geometry": {"type": "Point", "coordinates": [77.58957, 12.98753]}}, {"type": "Feature", "properties": {}, "geometry": {"type": "Point", "coordinates": [77.58921, 12.9874]}}, {"type": "Feature", "properties": {}, "geometry": {"type": "Point", "coordinates": [77.57351, 12.948]}}, {"type": "Feature", "properties": {}, "geometry": {"type": "Point", "coordinates": [77.58305, 12.97147]}}, {"type": "Feature", "properties": {}, "geometry": {"type": "Point", "coordinates": [77.58578, 13.10139]}}, {"type": "Feature", "properties": {}, "geometry": {"type": "Point", "coordinates": [77.58627, 13.10098]}}]}