{"type":"FeatureCollection","features":[{"type":"Feature","properties":{},"geometry":{"type":"Point","coordinates":[77.601336,12.915598]}},{"type":"Feature","properties":{},"geometry":{"type":"Point","coordinates":[77.607327,12.916256]}},{"type":"Feature","properties":{},"geometry":{"type":"Point","coordinates":[77.644516,12.971895]}},{"type":"Feature","properties":{},"geometry":{"type":"Point","coordinates":[77.621349,12.972633]}},{"type":"Feature","properties":{},"geometry":{"type":"Point","coordinates":[77.637744,12.961467]}},{"type":"Feature","properties":{},"geometry":{"type":"Point","coordinates":[77.649595,12.98305]}},{"type":"Feature","properties":{},"geometry":{"type":"Point","coordinates":[77.649695,12.982877]}},{"type":"Feature","properties":{},"geometry":{"type":"Point","coordinates":[77.649975,12.98242]}},{"type":"Feature","properties":{},"geometry":{"type":"Point","coordinates":[77.607339,12.965072]}},{"type":"Feature","properties":{},"geometry":{"type":"Point","coordinates":[77.608115,12.9648]}},{"type":"Feature","properties":{},"geometry":{"type":"Point","coordinates":[77.612379,12.958323]}},{"type":"Feature","properties":{},"geometry":{"type":"Point","coordinates":[77.591691,12.923596]}},{"type":"Feature","properties":{},"geometry":{"type":"Point","coordinates":[77.584883,12.930098]}},{"type":"Feature","properties":{},"geometry":{"type":"Point","coordinates":[77.586378,12.936163]}},{"type":"Feature","properties":{},"geometry":{"type":"Point","coordinates":[77.640014,12.975955]}},{"type":"Feature","properties":{},"geometry":{"type":"Point","coordinates":[77.57273,12.916403]}},{"type":"Feature","properties":{},"geometry":{"type":"Point","coordinates":[77.595422,12.913963]}},{"type":"Feature","properties":{},"geometry":{"type":"Point","coordinates":[77.560907,12.941136]}},{"type":"Feature","properties":{},"geometry":{"type":"Point","coordinates":[77.621466,12.927868]}},{"type":"Feature","properties":{},"geometry":{"type":"Point","coordinates":[77.548304,12.974661]}},{"type":"Feature","properties":{},"geometry":{"type":"Point","coordinates":[77.488789,12.931992]}},{"type":"Feature","properties":{},"geometry":{"type":"Point","coordinates":[77.525799,12.963843]}},{"type":"Feature","properties":{},"geometry":{"type":"Point","coordinates":[77.545737,12.998987]}},{"type":"Feature","properties":{},"geometry":{"type":"Point","coordinates":[77.589965,12.986789]}},{"type":"Feature","properties":{},"geometry":{"type":"Point","coordinates":[77.589571,12.987534]}},{"type":"Feature","properties":{},"geometry":{"type":"Point","coordinates":[77.589214,12.987402]}},{"type":"Feature","properties":{},"geometry":{"type":"Point","coordinates":[77.573513,12.947997]}},{"type":"Feature","properties":{},"geometry":{"type":"Point","coordinates":[77.583047,12.971472]}},{"type":"Feature","properties":{},"geometry":{"type":"Point","coordinates":[77.585785,13.101391]}},{"type":"Feature","properties":{},"geometry":{"type":"Point","coordinates":[77.586267,13.100982]}}]}